[{"OBJECT_NAME":"KUIPER-00129","OBJECT_ID":"2025-228M","EPOCH":"2026-03-06T05:32:38.577120","MEAN_MOTION":14.79940989,"ECCENTRICITY":5.017e-5,"INCLINATION":51.905,"RA_OF_ASC_NODE":3.3953,"ARG_OF_PERICENTER":236.4453,"MEAN_ANOMALY":123.6462,"EPHEMERIS_TYPE":0,"CLASSIFICATION_TYPE":"U","NORAD_CAT_ID":65958,"ELEMENT_SET_NO":999,"REV_AT_EPOCH":2289,"BSTAR":-0.00022836106,"MEAN_MOTION_DOT":-1.962e-5,"MEAN_MOTION_DDOT":0},{"OBJECT_NAME":"KUIPER-00130","OBJECT_ID":"2025-228N","EPOCH":"2026-03-06T01:25:51.834144","MEAN_MOTION":14.80024916,"ECCENTRICITY":0.00012181,"INCLINATION":51.9045,"RA_OF_ASC_NODE":6.661,"ARG_OF_PERICENTER":99.5961,"MEAN_ANOMALY":260.514,"EPHEMERIS_TYPE":0,"CLASSIFICATION_TYPE":"U","NORAD_CAT_ID":65959,"ELEMENT_SET_NO":999,"REV_AT_EPOCH":1312,"BSTAR":0.00086330721,"MEAN_MOTION_DOT":6.38e-5,"MEAN_MOTION_DDOT":0},{"OBJECT_NAME":"KUIPER-00134","OBJECT_ID":"2025-228P","EPOCH":"2026-03-06T03:27:03.904416","MEAN_MOTION":15.38470319,"ECCENTRICITY":0.00048264,"INCLINATION":51.8774,"RA_OF_ASC_NODE":337.5575,"ARG_OF_PERICENTER":311.8796,"MEAN_ANOMALY":48.1779,"EPHEMERIS_TYPE":0,"CLASSIFICATION_TYPE":"U","NORAD_CAT_ID":65960,"ELEMENT_SET_NO":999,"REV_AT_EPOCH":2324,"BSTAR":0.00093326399,"MEAN_MOTION_DOT":0.00035768,"MEAN_MOTION_DDOT":0},{"OBJECT_NAME":"KUIPER-00135","OBJECT_ID":"2025-228Q","EPOCH":"2026-03-06T05:28:47.588448","MEAN_MOTION":14.79947136,"ECCENTRICITY":0.00010465,"INCLINATION":51.9037,"RA_OF_ASC_NODE":5.977,"ARG_OF_PERICENTER":88.4063,"MEAN_ANOMALY":271.702,"EPHEMERIS_TYPE":0,"CLASSIFICATION_TYPE":"U","NORAD_CAT_ID":65961,"ELEMENT_SET_NO":999,"REV_AT_EPOCH":2285,"BSTAR":0.00090966292,"MEAN_MOTION_DOT":6.723e-5,"MEAN_MOTION_DDOT":0},{"OBJECT_NAME":"KUIPER-00136","OBJECT_ID":"2025-228R","EPOCH":"2026-03-06T04:43:57.553824","MEAN_MOTION":14.79893917,"ECCENTRICITY":0.00014189,"INCLINATION":51.9021,"RA_OF_ASC_NODE":3.5872,"ARG_OF_PERICENTER":102.0377,"MEAN_ANOMALY":258.0744,"EPHEMERIS_TYPE":0,"CLASSIFICATION_TYPE":"U","NORAD_CAT_ID":65962,"ELEMENT_SET_NO":999,"REV_AT_EPOCH":2288,"BSTAR":0.00095341012,"MEAN_MOTION_DOT":7.048e-5,"MEAN_MOTION_DDOT":0},{"OBJECT_NAME":"KUIPER-00137","OBJECT_ID":"2025-228S","EPOCH":"2026-03-06T04:43:31.798848","MEAN_MOTION":14.82022354,"ECCENTRICITY":9.265e-5,"INCLINATION":51.9038,"RA_OF_ASC_NODE":1.0192,"ARG_OF_PERICENTER":116.3565,"MEAN_ANOMALY":243.7494,"EPHEMERIS_TYPE":0,"CLASSIFICATION_TYPE":"U","NORAD_CAT_ID":65963,"ELEMENT_SET_NO":999,"REV_AT_EPOCH":2292,"BSTAR":-0.021371681,"MEAN_MOTION_DOT":-0.0016732,"MEAN_MOTION_DDOT":0},{"OBJECT_NAME":"KUIPER-00138","OBJECT_ID":"2025-228T","EPOCH":"2026-03-06T02:25:53.205600","MEAN_MOTION":14.79919123,"ECCENTRICITY":8.739e-5,"INCLINATION":51.9015,"RA_OF_ASC_NODE":358.961,"ARG_OF_PERICENTER":94.4149,"MEAN_ANOMALY":265.6913,"EPHEMERIS_TYPE":0,"CLASSIFICATION_TYPE":"U","NORAD_CAT_ID":65964,"ELEMENT_SET_NO":999,"REV_AT_EPOCH":2294,"BSTAR":0.0004325019,"MEAN_MOTION_DOT":3.076e-5,"MEAN_MOTION_DDOT":0},{"OBJECT_NAME":"KUIPER-00140","OBJECT_ID":"2025-228U","EPOCH":"2026-03-06T05:36:32.180256","MEAN_MOTION":14.79915162,"ECCENTRICITY":8.158e-5,"INCLINATION":51.9009,"RA_OF_ASC_NODE":0.9577,"ARG_OF_PERICENTER":62.4467,"MEAN_ANOMALY":297.6578,"EPHEMERIS_TYPE":0,"CLASSIFICATION_TYPE":"U","NORAD_CAT_ID":65965,"ELEMENT_SET_NO":999,"REV_AT_EPOCH":2292,"BSTAR":-0.00010131724,"MEAN_MOTION_DOT":-9.93e-6,"MEAN_MOTION_DDOT":0},{"OBJECT_NAME":"KUIPER-00141","OBJECT_ID":"2025-228V","EPOCH":"2026-03-06T05:44:18.437856","MEAN_MOTION":14.80031435,"ECCENTRICITY":6.578e-5,"INCLINATION":51.905,"RA_OF_ASC_NODE":355.9447,"ARG_OF_PERICENTER":56.8458,"MEAN_ANOMALY":303.2567,"EPHEMERIS_TYPE":0,"CLASSIFICATION_TYPE":"U","NORAD_CAT_ID":65966,"ELEMENT_SET_NO":999,"REV_AT_EPOCH":2299,"BSTAR":-0.00060977093,"MEAN_MOTION_DOT":-4.877e-5,"MEAN_MOTION_DDOT":0},{"OBJECT_NAME":"KUIPER-00146","OBJECT_ID":"2025-228W","EPOCH":"2026-03-06T05:51:45.772992","MEAN_MOTION":14.7647205,"ECCENTRICITY":0.00011302,"INCLINATION":51.9042,"RA_OF_ASC_NODE":358.165,"ARG_OF_PERICENTER":105.0094,"MEAN_ANOMALY":255.0993,"EPHEMERIS_TYPE":0,"CLASSIFICATION_TYPE":"U","NORAD_CAT_ID":65967,"ELEMENT_SET_NO":999,"REV_AT_EPOCH":2296,"BSTAR":0.00062591162,"MEAN_MOTION_DOT":4.185e-5,"MEAN_MOTION_DDOT":0},{"OBJECT_NAME":"KUIPER-00149","OBJECT_ID":"2025-228X","EPOCH":"2026-03-06T04:10:52.812768","MEAN_MOTION":14.79960286,"ECCENTRICITY":0.0001793,"INCLINATION":51.9043,"RA_OF_ASC_NODE":353.6486,"ARG_OF_PERICENTER":70.0984,"MEAN_ANOMALY":290.0172,"EPHEMERIS_TYPE":0,"CLASSIFICATION_TYPE":"U","NORAD_CAT_ID":65968,"ELEMENT_SET_NO":999,"REV_AT_EPOCH":2302,"BSTAR":-0.00022579151,"MEAN_MOTION_DOT":-1.943e-5,"MEAN_MOTION_DDOT":0},{"OBJECT_NAME":"KUIPER-00154","OBJECT_ID":"2025-228Y","EPOCH":"2026-03-06T00:11:39.103008","MEAN_MOTION":14.79933244,"ECCENTRICITY":5.895e-5,"INCLINATION":51.9029,"RA_OF_ASC_NODE":351.8867,"ARG_OF_PERICENTER":100.7058,"MEAN_ANOMALY":259.3971,"EPHEMERIS_TYPE":0,"CLASSIFICATION_TYPE":"U","NORAD_CAT_ID":65969,"ELEMENT_SET_NO":999,"REV_AT_EPOCH":2303,"BSTAR":0.00069652882,"MEAN_MOTION_DOT":5.093e-5,"MEAN_MOTION_DDOT":0},{"OBJECT_NAME":"KUIPER-00157","OBJECT_ID":"2025-228Z","EPOCH":"2026-03-06T00:07:45.920640","MEAN_MOTION":14.79925909,"ECCENTRICITY":0.00012823,"INCLINATION":51.9041,"RA_OF_ASC_NODE":354.5124,"ARG_OF_PERICENTER":44.5406,"MEAN_ANOMALY":315.566,"EPHEMERIS_TYPE":0,"CLASSIFICATION_TYPE":"U","NORAD_CAT_ID":65970,"ELEMENT_SET_NO":999,"REV_AT_EPOCH":2299,"BSTAR":-7.9783281e-5,"MEAN_MOTION_DOT":-8.29e-6,"MEAN_MOTION_DDOT":0},{"OBJECT_NAME":"KUIPER-00144","OBJECT_ID":"2025-301A","EPOCH":"2026-03-06T06:36:31.601664","MEAN_MOTION":15.38248456,"ECCENTRICITY":0.00076566,"INCLINATION":51.8681,"RA_OF_ASC_NODE":81.5929,"ARG_OF_PERICENTER":22.0529,"MEAN_ANOMALY":338.0787,"EPHEMERIS_TYPE":0,"CLASSIFICATION_TYPE":"U","NORAD_CAT_ID":67133,"ELEMENT_SET_NO":999,"REV_AT_EPOCH":1321,"BSTAR":0.00054176371,"MEAN_MOTION_DOT":0.00020415,"MEAN_MOTION_DDOT":0},{"OBJECT_NAME":"KUIPER-00164","OBJECT_ID":"2025-301B","EPOCH":"2026-03-06T06:00:02.000160","MEAN_MOTION":15.16427965,"ECCENTRICITY":0.0004213,"INCLINATION":51.8784,"RA_OF_ASC_NODE":83.3106,"ARG_OF_PERICENTER":52.0949,"MEAN_ANOMALY":63.1307,"EPHEMERIS_TYPE":0,"CLASSIFICATION_TYPE":"U","NORAD_CAT_ID":67134,"ELEMENT_SET_NO":999,"REV_AT_EPOCH":571,"BSTAR":-0.11174986,"MEAN_MOTION_DOT":-0.01986972,"MEAN_MOTION_DDOT":0},{"OBJECT_NAME":"KUIPER-00175","OBJECT_ID":"2025-301C","EPOCH":"2026-03-06T06:12:30.954240","MEAN_MOTION":15.30820209,"ECCENTRICITY":0.00020881,"INCLINATION":51.8763,"RA_OF_ASC_NODE":81.5145,"ARG_OF_PERICENTER":37.2268,"MEAN_ANOMALY":322.886,"EPHEMERIS_TYPE":0,"CLASSIFICATION_TYPE":"U","NORAD_CAT_ID":67135,"ELEMENT_SET_NO":999,"REV_AT_EPOCH":1328,"BSTAR":0.00059362476,"MEAN_MOTION_DOT":0.00017619,"MEAN_MOTION_DDOT":0},{"OBJECT_NAME":"KUIPER-00179","OBJECT_ID":"2025-301D","EPOCH":"2026-03-06T06:00:02.000160","MEAN_MOTION":15.12692176,"ECCENTRICITY":0.00026598,"INCLINATION":51.8864,"RA_OF_ASC_NODE":82.7642,"ARG_OF_PERICENTER":61.7236,"MEAN_ANOMALY":24.4004,"EPHEMERIS_TYPE":0,"CLASSIFICATION_TYPE":"U","NORAD_CAT_ID":67136,"ELEMENT_SET_NO":999,"REV_AT_EPOCH":580,"BSTAR":-0.069433935,"MEAN_MOTION_DOT":-0.01134451,"MEAN_MOTION_DDOT":0},{"OBJECT_NAME":"KUIPER-00181","OBJECT_ID":"2025-301E","EPOCH":"2026-03-06T06:00:02.000160","MEAN_MOTION":14.76418493,"ECCENTRICITY":0.00019707,"INCLINATION":51.9008,"RA_OF_ASC_NODE":92.2257,"ARG_OF_PERICENTER":88.0039,"MEAN_ANOMALY":191.1467,"EPHEMERIS_TYPE":0,"CLASSIFICATION_TYPE":"U","NORAD_CAT_ID":67137,"ELEMENT_SET_NO":999,"REV_AT_EPOCH":546,"BSTAR":-0.0037442398,"MEAN_MOTION_DOT":-0.00026382,"MEAN_MOTION_DDOT":0},{"OBJECT_NAME":"KUIPER-00183","OBJECT_ID":"2025-301F","EPOCH":"2026-03-06T06:00:02.000160","MEAN_MOTION":15.30441969,"ECCENTRICITY":0.00151253,"INCLINATION":51.8657,"RA_OF_ASC_NODE":82.5492,"ARG_OF_PERICENTER":40.202,"MEAN_ANOMALY":86.4995,"EPHEMERIS_TYPE":0,"CLASSIFICATION_TYPE":"U","NORAD_CAT_ID":67138,"ELEMENT_SET_NO":999,"REV_AT_EPOCH":565,"BSTAR":-0.038058537,"MEAN_MOTION_DOT":-0.01049971,"MEAN_MOTION_DDOT":0},{"OBJECT_NAME":"KUIPER-00184","OBJECT_ID":"2025-301G","EPOCH":"2026-03-06T06:16:52.286592","MEAN_MOTION":15.35630715,"ECCENTRICITY":0.00130556,"INCLINATION":51.8627,"RA_OF_ASC_NODE":82.1832,"ARG_OF_PERICENTER":35.4687,"MEAN_ANOMALY":324.7165,"EPHEMERIS_TYPE":0,"CLASSIFICATION_TYPE":"U","NORAD_CAT_ID":67139,"ELEMENT_SET_NO":999,"REV_AT_EPOCH":1348,"BSTAR":0.00098260923,"MEAN_MOTION_DOT":0.00034423,"MEAN_MOTION_DDOT":0},{"OBJECT_NAME":"KUIPER-00186","OBJECT_ID":"2025-301H","EPOCH":"2026-03-06T06:27:23.922432","MEAN_MOTION":14.79985453,"ECCENTRICITY":6.888e-5,"INCLINATION":51.9012,"RA_OF_ASC_NODE":93.2368,"ARG_OF_PERICENTER":109.5817,"MEAN_ANOMALY":250.522,"EPHEMERIS_TYPE":0,"CLASSIFICATION_TYPE":"U","NORAD_CAT_ID":67140,"ELEMENT_SET_NO":999,"REV_AT_EPOCH":1305,"BSTAR":0.00093078714,"MEAN_MOTION_DOT":6.891e-5,"MEAN_MOTION_DDOT":0},{"OBJECT_NAME":"KUIPER-00187","OBJECT_ID":"2025-301J","EPOCH":"2026-03-06T06:23:24.381888","MEAN_MOTION":14.79937872,"ECCENTRICITY":6.779e-5,"INCLINATION":51.9021,"RA_OF_ASC_NODE":95.7613,"ARG_OF_PERICENTER":103.8871,"MEAN_ANOMALY":256.2167,"EPHEMERIS_TYPE":0,"CLASSIFICATION_TYPE":"U","NORAD_CAT_ID":67141,"ELEMENT_SET_NO":999,"REV_AT_EPOCH":1301,"BSTAR":-0.00021568973,"MEAN_MOTION_DOT":-1.865e-5,"MEAN_MOTION_DDOT":0},{"OBJECT_NAME":"KUIPER-00188","OBJECT_ID":"2025-301K","EPOCH":"2026-03-06T05:35:55.491360","MEAN_MOTION":15.37894215,"ECCENTRICITY":0.00102477,"INCLINATION":51.8699,"RA_OF_ASC_NODE":82.0532,"ARG_OF_PERICENTER":32.0529,"MEAN_ANOMALY":328.108,"EPHEMERIS_TYPE":0,"CLASSIFICATION_TYPE":"U","NORAD_CAT_ID":67142,"ELEMENT_SET_NO":999,"REV_AT_EPOCH":1320,"BSTAR":0.00097382418,"MEAN_MOTION_DOT":0.00036692,"MEAN_MOTION_DDOT":0}]
